{"type": "FeatureCollection", "features": [ {"type": "Feature", "properties": {"norad_id": 31293, "name": "FENGYUN 1C DEB", "group": "fengyun-1c-debris", "lat": -70.04698444371654, "lon": 143.8263953690625, "alt_km": 708.8309327253992, "timestamp": "2025-12-05T22:40:48.832070+00:00", "meta": {"OBJECT_NAME": "FENGYUN 1C DEB", "OBJECT_ID": "1999-025BPB", "EPOCH": "2025-12-05T06:23:36.839040", "MEAN_MOTION": 14.30806666, "ECCENTRICITY": 0.01253421, "INCLINATION": 98.4231, "RA_OF_ASC_NODE": 347.2572, "ARG_OF_PERICENTER": 267.2095, "MEAN_ANOMALY": 91.4737, "EPHEMERIS_TYPE": 0, "CLASSIFICATION_TYPE": "U", "NORAD_CAT_ID": 31293, "ELEMENT_SET_NO": 999, "REV_AT_EPOCH": 65137, "BSTAR": 0.00014924977, "MEAN_MOTION_DOT": 3.81e-06, "MEAN_MOTION_DDOT": 0}, "tle": {"line1": "1 31293U 99025BPB 25339.26639860  .00000381  00000+0  14925-3 0  9990", "line2": "2 31293  98.4231 347.2572 0125342 267.2095  91.4737 14.30806666651378"}}, "geometry": {"type": "Point", "coordinates": [143.8263953690625, -70.04698444371654]}}, {"type": "Feature", "properties": {"norad_id": 31294, "name": "FENGYUN 1C DEB", "group": "fengyun-1c-debris", "lat": -26.055773983865546, "lon": -19.944935937949023, "alt_km": 782.1567555678757, "timestamp": "2025-12-05T22:40:48.832080+00:00", "meta": {"OBJECT_NAME": "FENGYUN 1C DEB", "OBJECT_ID": "1999-025BPC", "EPOCH": "2025-11-30T10:27:29.113632", "MEAN_MOTION": 14.15271063, "ECCENTRICITY": 0.01004597, "INCLINATION": 98.5427, "RA_OF_ASC_NODE": 330.5625, "ARG_OF_PERICENTER": 16.5048, "MEAN_ANOMALY": 343.9358, "EPHEMERIS_TYPE": 0, "CLASSIFICATION_TYPE": "U", "NORAD_CAT_ID": 31294, "ELEMENT_SET_NO": 999, "REV_AT_EPOCH": 96679, "BSTAR": 0.00052440304, "MEAN_MOTION_DOT": 1.029e-05, "MEAN_MOTION_DDOT": 0}, "tle": {"line1": "1 31294U 99025BPC 25334.43575363  .00001029  00000+0  52440-3 0  9996", "line2": "2 31294  98.5427 330.5625 0100459  16.5048 343.9358 14.15271063966795"}}, "geometry": {"type": "Point", "coordinates": [-19.944935937949023, -26.055773983865546]}}, {"type": "Feature", "properties": {"norad_id": 31295, "name": "FENGYUN 1C DEB", "group": "fengyun-1c-debris", "lat": 12.900791221659285, "lon": 163.6041825291847, "alt_km": 917.681252056007, "timestamp": "2025-12-05T22:40:48.832090+00:00", "meta": {"OBJECT_NAME": "FENGYUN 1C DEB", "OBJECT_ID": "1999-025BPD", "EPOCH": "2025-12-05T05:25:35.424480", "MEAN_MOTION": 13.96826411, "ECCENTRICITY": 0.00766557, "INCLINATION": 98.317, "RA_OF_ASC_NODE": 164.8738, "ARG_OF_PERICENTER": 272.5326, "MEAN_ANOMALY": 86.7065, "EPHEMERIS_TYPE": 0, "CLASSIFICATION_TYPE": "U", "NORAD_CAT_ID": 31295, "ELEMENT_SET_NO": 999, "REV_AT_EPOCH": 95398, "BSTAR": 0.00032344901, "MEAN_MOTION_DOT": 4.22e-06, "MEAN_MOTION_DDOT": 0}, "tle": {"line1": "1 31295U 99025BPD 25339.22610445  .00000422  00000+0  32345-3 0  9998", "line2": "2 31295  98.3170 164.8738 0076655 272.5326  86.7065 13.96826411953980"}}, "geometry": {"type": "Point", "coordinates": [163.6041825291847, 12.900791221659285]}}, {"type": "Feature", "properties": {"norad_id": 31296, "name": "FENGYUN 1C DEB", "group": "fengyun-1c-debris", "lat": 20.510456442907895, "lon": 77.50351642595204, "alt_km": 656.2332070210923, "timestamp": "2025-12-05T22:40:48.832100+00:00", "meta": {"OBJECT_NAME": "FENGYUN 1C DEB", "OBJECT_ID": "1999-025BPE", "EPOCH": "2025-12-05T05:37:50.120832", "MEAN_MOTION": 14.70811407, "ECCENTRICITY": 0.00199503, "INCLINATION": 99.0672, "RA_OF_ASC_NODE": 253.2889, "ARG_OF_PERICENTER": 243.3193, "MEAN_ANOMALY": 116.5968, "EPHEMERIS_TYPE": 0, "CLASSIFICATION_TYPE": "U", "NORAD_CAT_ID": 31296, "ELEMENT_SET_NO": 999, "REV_AT_EPOCH": 97239, "BSTAR": 0.0086093923, "MEAN_MOTION_DOT": 0.00053099, "MEAN_MOTION_DDOT": 0}, "tle": {"line1": "1 31296U 99025BPE 25339.23460788  .00053099  00000+0  86094-2 0  9990", "line2": "2 31296  99.0672 253.2889 0019950 243.3193 116.5968 14.70811407972391"}}, "geometry": {"type": "Point", "coordinates": [77.50351642595204, 20.510456442907895]}}, {"type": "Feature", "properties": {"norad_id": 31297, "name": "FENGYUN 1C DEB", "group": "fengyun-1c-debris", "lat": -77.68146148805458, "lon": -109.73940522742095, "alt_km": 755.4621237644269, "timestamp": "2025-12-05T22:40:48.832110+00:00", "meta": {"OBJECT_NAME": "FENGYUN 1C DEB", "OBJECT_ID": "1999-025BPF", "EPOCH": "2025-12-05T05:33:33.181056", "MEAN_MOTION": 14.57018532, "ECCENTRICITY": 0.01395568, "INCLINATION": 98.9339, "RA_OF_ASC_NODE": 115.5792, "ARG_OF_PERICENTER": 145.607, "MEAN_ANOMALY": 334.758, "EPHEMERIS_TYPE": 0, "CLASSIFICATION_TYPE": "U", "NORAD_CAT_ID": 31297, "ELEMENT_SET_NO": 999, "REV_AT_EPOCH": 99206, "BSTAR": 0.0010782614, "MEAN_MOTION_DOT": 5.485e-05, "MEAN_MOTION_DDOT": 0}, "tle": {"line1": "1 31297U 99025BPF 25339.23163404  .00005485  00000+0  10783-2 0  9994", "line2": "2 31297  98.9339 115.5792 0139556 145.6070 334.7580 14.57018532992069"}}, "geometry": {"type": "Point", "coordinates": [-109.73940522742095, -77.68146148805458]}}, {"type": "Feature", "properties": {"norad_id": 31300, "name": "FENGYUN 1C DEB", "group": "fengyun-1c-debris", "lat": 32.316758176370506, "lon": -115.06477300274788, "alt_km": 823.1249957742975, "timestamp": "2025-12-05T22:40:48.832120+00:00", "meta": {"OBJECT_NAME": "FENGYUN 1C DEB", "OBJECT_ID": "1999-025BPJ", "EPOCH": "2025-12-05T03:38:56.844384", "MEAN_MOTION": 14.15070229, "ECCENTRICITY": 0.0061063, "INCLINATION": 99.5433, "RA_OF_ASC_NODE": 57.9789, "ARG_OF_PERICENTER": 81.5427, "MEAN_ANOMALY": 347.5331, "EPHEMERIS_TYPE": 0, "CLASSIFICATION_TYPE": "U", "NORAD_CAT_ID": 31300, "ELEMENT_SET_NO": 999, "REV_AT_EPOCH": 96067, "BSTAR": 0.0026332627, "MEAN_MOTION_DOT": 5.15e-05, "MEAN_MOTION_DDOT": 0}, "tle": {"line1": "1 31300U 99025BPJ 25339.15204681  .00005150  00000+0  26333-2 0  9990", "line2": "2 31300  99.5433  57.9789 0061063  81.5427 347.5331 14.15070229960675"}}, "geometry": {"type": "Point", "coordinates": [-115.06477300274788, 32.316758176370506]}}, {"type": "Feature", "properties": {"norad_id": 31302, "name": "FENGYUN 1C DEB", "group": "fengyun-1c-debris", "lat": 41.73897088227533, "lon": 12.954974838379648, "alt_km": 780.0329400578312, "timestamp": "2025-12-05T22:40:48.832130+00:00", "meta": {"OBJECT_NAME": "FENGYUN 1C DEB", "OBJECT_ID": "1999-025BPL", "EPOCH": "2025-12-03T01:39:01.160352", "MEAN_MOTION": 14.27429347, "ECCENTRICITY": 0.00276162, "INCLINATION": 99.4144, "RA_OF_ASC_NODE": 18.3726, "ARG_OF_PERICENTER": 82.9913, "MEAN_ANOMALY": 307.4718, "EPHEMERIS_TYPE": 0, "CLASSIFICATION_TYPE": "U", "NORAD_CAT_ID": 31302, "ELEMENT_SET_NO": 999, "REV_AT_EPOCH": 96220, "BSTAR": 0.0018601189, "MEAN_MOTION_DOT": 4.535e-05, "MEAN_MOTION_DDOT": 0}, "tle": {"line1": "1 31302U 99025BPL 25337.06876343  .00004535  00000+0  18601-2 0  9995", "line2": "2 31302  99.4144  18.3726 0027616  82.9913 307.4718 14.27429347962205"}}, "geometry": {"type": "Point", "coordinates": [12.954974838379648, 41.73897088227533]}}, {"type": "Feature", "properties": {"norad_id": 31303, "name": "FENGYUN 1C DEB", "group": "fengyun-1c-debris", "lat": 4.899173160777026, "lon": 177.11007907188628, "alt_km": 850.0120099819751, "timestamp": "2025-12-05T22:40:48.832140+00:00", "meta": {"OBJECT_NAME": "FENGYUN 1C DEB", "OBJECT_ID": "1999-025BPM", "EPOCH": "2025-12-05T06:32:14.407872", "MEAN_MOTION": 14.11020196, "ECCENTRICITY": 0.00112406, "INCLINATION": 98.7051, "RA_OF_ASC_NODE": 355.7058, "ARG_OF_PERICENTER": 172.5625, "MEAN_ANOMALY": 187.5715, "EPHEMERIS_TYPE": 0, "CLASSIFICATION_TYPE": "U", "NORAD_CAT_ID": 31303, "ELEMENT_SET_NO": 999, "REV_AT_EPOCH": 96213, "BSTAR": 0.00022142036, "MEAN_MOTION_DOT": 3.56e-06, "MEAN_MOTION_DDOT": 0}, "tle": {"line1": "1 31303U 99025BPM 25339.27238898  .00000356  00000+0  22142-3 0  9991", "line2": "2 31303  98.7051 355.7058 0011240 172.5625 187.5715 14.11020196962131"}}, "geometry": {"type": "Point", "coordinates": [177.11007907188628, 4.899173160777026]}}, {"type": "Feature", "properties": {"norad_id": 31311, "name": "FENGYUN 1C DEB", "group": "fengyun-1c-debris", "lat": 41.592872942646125, "lon": -110.86623422305433, "alt_km": 777.6070189307184, "timestamp": "2025-12-05T22:40:48.832150+00:00", "meta": {"OBJECT_NAME": "FENGYUN 1C DEB", "OBJECT_ID": "1999-025BPP", "EPOCH": "2025-12-05T05:31:31.137600", "MEAN_MOTION": 14.29642989, "ECCENTRICITY": 0.00193914, "INCLINATION": 98.8537, "RA_OF_ASC_NODE": 60.455, "ARG_OF_PERICENTER": 108.4028, "MEAN_ANOMALY": 312.4452, "EPHEMERIS_TYPE": 0, "CLASSIFICATION_TYPE": "U", "NORAD_CAT_ID": 31311, "ELEMENT_SET_NO": 999, "REV_AT_EPOCH": 96114, "BSTAR": 0.0036208483, "MEAN_MOTION_DOT": 9.26e-05, "MEAN_MOTION_DDOT": 0}, "tle": {"line1": "1 31311U 99025BPP 25339.23022150  .00009260  00000+0  36208-2 0  9998", "line2": "2 31311  98.8537  60.4550 0019391 108.4028 312.4452 14.29642989961143"}}, "geometry": {"type": "Point", "coordinates": [-110.86623422305433, 41.592872942646125]}}, {"type": "Feature", "properties": {"norad_id": 31312, "name": "FENGYUN 1C DEB", "group": "fengyun-1c-debris", "lat": -72.74413512646689, "lon": -4.0492053517937965, "alt_km": 861.0062427548082, "timestamp": "2025-12-05T22:40:48.832161+00:00", "meta": {"OBJECT_NAME": "FENGYUN 1C DEB", "OBJECT_ID": "1999-025BPQ", "EPOCH": "2025-12-01T11:40:09.596352", "MEAN_MOTION": 14.00893121, "ECCENTRICITY": 0.00581856, "INCLINATION": 98.8574, "RA_OF_ASC_NODE": 321.4953, "ARG_OF_PERICENTER": 267.9693, "MEAN_ANOMALY": 222.3029, "EPHEMERIS_TYPE": 0, "CLASSIFICATION_TYPE": "U", "NORAD_CAT_ID": 31312, "ELEMENT_SET_NO": 999, "REV_AT_EPOCH": 94988, "BSTAR": 0.00061208287, "MEAN_MOTION_DOT": 8.85e-06, "MEAN_MOTION_DDOT": 0}, "tle": {"line1": "1 31312U 99025BPQ 25335.48622218  .00000885  00000+0  61208-3 0  9996", "line2": "2 31312  98.8574 321.4953 0058185 267.9693 222.3029 14.00893121949886"}}, "geometry": {"type": "Point", "coordinates": [-4.0492053517937965, -72.74413512646689]}}]}